[{"OBJECT_NAME":"LEMUR-2-KREMPEL-BRO1","OBJECT_ID":"2025-061G","EPOCH":"2026-03-06T03:54:01.235520","MEAN_MOTION":15.13723312,"ECCENTRICITY":0.00173233,"INCLINATION":97.5525,"RA_OF_ASC_NODE":41.7924,"ARG_OF_PERICENTER":242.2909,"MEAN_ANOMALY":117.6565,"EPHEMERIS_TYPE":0,"CLASSIFICATION_TYPE":"U","NORAD_CAT_ID":63357,"ELEMENT_SET_NO":999,"REV_AT_EPOCH":5204,"BSTAR":0.00029510493,"MEAN_MOTION_DOT":5.268e-5,"MEAN_MOTION_DDOT":0},{"OBJECT_NAME":"LEMUR-2-LANGER2SPACE","OBJECT_ID":"2025-061H","EPOCH":"2026-03-05T23:16:52.746816","MEAN_MOTION":15.13409606,"ECCENTRICITY":0.0015161,"INCLINATION":97.5531,"RA_OF_ASC_NODE":41.4576,"ARG_OF_PERICENTER":252.7664,"MEAN_ANOMALY":107.1908,"EPHEMERIS_TYPE":0,"CLASSIFICATION_TYPE":"U","NORAD_CAT_ID":63358,"ELEMENT_SET_NO":999,"REV_AT_EPOCH":5200,"BSTAR":0.00029656959,"MEAN_MOTION_DOT":5.243e-5,"MEAN_MOTION_DDOT":0},{"OBJECT_NAME":"LEMUR-2-BALTO","OBJECT_ID":"2025-052BH","EPOCH":"2026-03-06T05:21:56.230272","MEAN_MOTION":14.9887189,"ECCENTRICITY":0.00027278,"INCLINATION":97.6986,"RA_OF_ASC_NODE":320.0884,"ARG_OF_PERICENTER":8.408,"MEAN_ANOMALY":351.7188,"EPHEMERIS_TYPE":0,"CLASSIFICATION_TYPE":"U","NORAD_CAT_ID":63395,"ELEMENT_SET_NO":999,"REV_AT_EPOCH":5333,"BSTAR":0.00064483842,"MEAN_MOTION_DOT":7.733e-5,"MEAN_MOTION_DDOT":0}]
