LEMUR-2-KREMPEL-BRO1    
1 63357U 25061G   26065.16251430  .00005268  00000+0  29510-3 0  9999
2 63357  97.5525  41.7924 0017323 242.2909 117.6565 15.13723312 52040
LEMUR-2-LANGER2SPACE    
1 63358U 25061H   26064.97005494  .00005243  00000+0  29657-3 0  9990
2 63358  97.5531  41.4576 0015161 252.7664 107.1908 15.13409606 52008
LEMUR-2-BALTO           
1 63395U 25052BH  26065.22356748  .00007733  00000+0  64484-3 0  9994
2 63395  97.6986 320.0884 0002727   8.4080 351.7188 14.98871890 53338
